{
  "type": "FeatureCollection",
  "features": [
    {
      "type": "Feature",
      "properties": {
        "norad_id": 45358,
        "name": "COSMOS 2545 (760)",
        "group": "gnss",
        "lat": -18.332122127611587,
        "lon": -49.79146098643359,
        "alt_km": 19133.350532029424,
        "timestamp": "2025-12-02T13:52:17.505812+00:00",
        "meta_object_name": "COSMOS 2545 (760)",
        "meta_object_id": "2020-018A",
        "meta_epoch": "2025-11-30T06:11:57.120864",
        "meta_mean_motion": 2.13102401,
        "meta_eccentricity": 0.00119448,
        "meta_inclination": 64.4769,
        "meta_ra_of_asc_node": 319.4079,
        "meta_arg_of_pericenter": 248.2158,
        "meta_mean_anomaly": 111.6706,
        "meta_ephemeris_type": 0,
        "meta_classification_type": "U",
        "meta_norad_cat_id": 45358,
        "meta_element_set_no": 999,
        "meta_rev_at_epoch": 4442,
        "meta_bstar": 0,
        "meta_mean_motion_dot": -2.2e-07,
        "meta_mean_motion_ddot": 0,
        "tle_line1": "1 45358U 20018A   25334.25830001 -.00000022  00000+0  00000+0 0  9995",
        "tle_line2": "2 45358  64.4769 319.4079 0011944 248.2158 111.6706  2.13102401 44425"
      },
      "geometry": {
        "type": "Point",
        "coordinates": [
          -49.79146098643359,
          -18.332122127611587
        ]
      }
    },
    {
      "type": "Feature",
      "properties": {
        "norad_id": 45807,
        "name": "BEIDOU-3 G3 (C61)",
        "group": "gnss",
        "lat": -1.1374974677531224,
        "lon": 30.28300282875927,
        "alt_km": 35767.55193467654,
        "timestamp": "2025-12-02T13:52:17.505833+00:00",
        "meta_object_name": "BEIDOU-3 G3 (C61)",
        "meta_object_id": "2020-040A",
        "meta_epoch": "2025-12-02T03:49:07.508352",
        "meta_mean_motion": 1.00267316,
        "meta_eccentricity": 0.00049793,
        "meta_inclination": 1.9634,
        "meta_ra_of_asc_node": 66.509,
        "meta_arg_of_pericenter": 305.9594,
        "meta_mean_anomaly": 226.6097,
        "meta_ephemeris_type": 0,
        "meta_classification_type": "U",
        "meta_norad_cat_id": 45807,
        "meta_element_set_no": 999,
        "meta_rev_at_epoch": 2009,
        "meta_bstar": 0,
        "meta_mean_motion_dot": -3.33e-06,
        "meta_mean_motion_ddot": 0,
        "tle_line1": "1 45807U 20040A   25336.15911468 -.00000333  00000+0  00000+0 0  9992",
        "tle_line2": "2 45807   1.9634  66.5090 0004979 305.9594 226.6097  1.00267316 20098"
      },
      "geometry": {
        "type": "Point",
        "coordinates": [
          30.28300282875927,
          -1.1374974677531224
        ]
      }
    },
    {
      "type": "Feature",
      "properties": {
        "norad_id": 45854,
        "name": "GPS BIII-3  (PRN 23)",
        "group": "gnss",
        "lat": -22.517997940564676,
        "lon": -127.5079462802491,
        "alt_km": 20025.595274949006,
        "timestamp": "2025-12-02T13:52:17.505848+00:00",
        "meta_object_name": "GPS BIII-3  (PRN 23)",
        "meta_object_id": "2020-041A",
        "meta_epoch": "2025-12-01T12:48:33.414048",
        "meta_mean_motion": 2.00561786,
        "meta_eccentricity": 0.00602336,
        "meta_inclination": 56.5391,
        "meta_ra_of_asc_node": 36.623,
        "meta_arg_of_pericenter": 202.9184,
        "meta_mean_anomaly": 330.3559,
        "meta_ephemeris_type": 0,
        "meta_classification_type": "U",
        "meta_norad_cat_id": 45854,
        "meta_element_set_no": 999,
        "meta_rev_at_epoch": 4007,
        "meta_bstar": 0,
        "meta_mean_motion_dot": -6.5e-07,
        "meta_mean_motion_ddot": 0,
        "tle_line1": "1 45854U 20041A   25335.53372007 -.00000065  00000+0  00000+0 0  9998",
        "tle_line2": "2 45854  56.5391  36.6230 0060233 202.9184 330.3559  2.00561786 40071"
      },
      "geometry": {
        "type": "Point",
        "coordinates": [
          -127.5079462802491,
          -22.517997940564676
        ]
      }
    },
    {
      "type": "Feature",
      "properties": {
        "norad_id": 46114,
        "name": "GALAXY 30 (WAAS/PRN 135)",
        "group": "gnss",
        "lat": -0.020667064873505205,
        "lon": 154.70333690027712,
        "alt_km": 35786.74586841301,
        "timestamp": "2025-12-02T13:52:17.505860+00:00",
        "meta_object_name": "GALAXY 30 (WAAS/PRN 135)",
        "meta_object_id": "2020-056C",
        "meta_epoch": "2025-12-01T20:42:04.934304",
        "meta_mean_motion": 1.0027242,
        "meta_eccentricity": 0.0002369,
        "meta_inclination": 0.0148,
        "meta_ra_of_asc_node": 292.7027,
        "meta_arg_of_pericenter": 317.0993,
        "meta_mean_anomaly": 6.6971,
        "meta_ephemeris_type": 0,
        "meta_classification_type": "U",
        "meta_norad_cat_id": 46114,
        "meta_element_set_no": 999,
        "meta_rev_at_epoch": 1931,
        "meta_bstar": 0,
        "meta_mean_motion_dot": 5.8e-07,
        "meta_mean_motion_ddot": 0,
        "tle_line1": "1 46114U 20056C   25335.86255711  .00000058  00000+0  00000+0 0  9993",
        "tle_line2": "2 46114   0.0148 292.7027 0002369 317.0993   6.6971  1.00272420 19313"
      },
      "geometry": {
        "type": "Point",
        "coordinates": [
          154.70333690027712,
          -0.020667064873505205
        ]
      }
    },
    {
      "type": "Feature",
      "properties": {
        "norad_id": 46805,
        "name": "COSMOS 2547 (705K)",
        "group": "gnss",
        "lat": -13.799774002235205,
        "lon": 25.737565152780416,
        "alt_km": 19119.019815442407,
        "timestamp": "2025-12-02T13:52:17.505872+00:00",
        "meta_object_name": "COSMOS 2547 (705K)",
        "meta_object_id": "2020-075A",
        "meta_epoch": "2025-11-30T21:58:22.930752",
        "meta_mean_motion": 2.13099889,
        "meta_eccentricity": 0.00063143,
        "meta_inclination": 64.5957,
        "meta_ra_of_asc_node": 199.0914,
        "meta_arg_of_pericenter": 229.6069,
        "meta_mean_anomaly": 130.4292,
        "meta_ephemeris_type": 0,
        "meta_classification_type": "U",
        "meta_norad_cat_id": 46805,
        "meta_element_set_no": 999,
        "meta_rev_at_epoch": 3968,
        "meta_bstar": 0,
        "meta_mean_motion_dot": 9.8e-07,
        "meta_mean_motion_ddot": 0,
        "tle_line1": "1 46805U 20075A   25334.91554318  .00000098  00000+0  00000+0 0  9995",
        "tle_line2": "2 46805  64.5957 199.0914 0006314 229.6069 130.4292  2.13099889 39688"
      },
      "geometry": {
        "type": "Point",
        "coordinates": [
          25.737565152780416,
          -13.799774002235205
        ]
      }
    },
    {
      "type": "Feature",
      "properties": {
        "norad_id": 46826,
        "name": "GPS BIII-4  (PRN 14)",
        "group": "gnss",
        "lat": 1.9326293168388262,
        "lon": 37.35421161356339,
        "alt_km": 20029.12505422929,
        "timestamp": "2025-12-02T13:52:17.505883+00:00",
        "meta_object_name": "GPS BIII-4  (PRN 14)",
        "meta_object_id": "2020-078A",
        "meta_epoch": "2025-11-12T03:01:29.190720",
        "meta_mean_motion": 2.00567032,
        "meta_eccentricity": 0.0063911,
        "meta_inclination": 54.0223,
        "meta_ra_of_asc_node": 219.5836,
        "meta_arg_of_pericenter": 203.4985,
        "meta_mean_anomaly": 326.7754,
        "meta_ephemeris_type": 0,
        "meta_classification_type": "U",
        "meta_norad_cat_id": 46826,
        "meta_element_set_no": 999,
        "meta_rev_at_epoch": 3715,
        "meta_bstar": 0,
        "meta_mean_motion_dot": -3.4e-07,
        "meta_mean_motion_ddot": 0,
        "tle_line1": "1 46826U 20078A   25316.12603230 -.00000034  00000+0  00000+0 0  9993",
        "tle_line2": "2 46826  54.0223 219.5836 0063911 203.4985 326.7754  2.00567032 37154"
      },
      "geometry": {
        "type": "Point",
        "coordinates": [
          37.35421161356339,
          1.9326293168388262
        ]
      }
    },
    {
      "type": "Feature",
      "properties": {
        "norad_id": 48859,
        "name": "GPS BIII-5  (PRN 11)",
        "group": "gnss",
        "lat": 3.3245586885260576,
        "lon": -17.32452548596182,
        "alt_km": 20225.814660222208,
        "timestamp": "2025-12-02T13:52:17.505897+00:00",
        "meta_object_name": "GPS BIII-5  (PRN 11)",
        "meta_object_id": "2021-054A",
        "meta_epoch": "2025-11-30T17:12:22.003776",
        "meta_mean_motion": 2.00553931,
        "meta_eccentricity": 0.00246504,
        "meta_inclination": 55.2605,
        "meta_ra_of_asc_node": 340.4377,
        "meta_arg_of_pericenter": 232.9586,
        "meta_mean_anomaly": 227.195,
        "meta_ephemeris_type": 0,
        "meta_classification_type": "U",
        "meta_norad_cat_id": 48859,
        "meta_element_set_no": 999,
        "meta_rev_at_epoch": 3277,
        "meta_bstar": 0,
        "meta_mean_motion_dot": -5.5e-07,
        "meta_mean_motion_ddot": 0,
        "tle_line1": "1 48859U 21054A   25334.71692134 -.00000055  00000+0  00000+0 0  9995",
        "tle_line2": "2 48859  55.2605 340.4377 0024650 232.9586 227.1950  2.00553931 32772"
      },
      "geometry": {
        "type": "Point",
        "coordinates": [
          -17.32452548596182,
          3.3245586885260576
        ]
      }
    }
  ]
}